{
  "type": "FeatureCollection",
  "features": [
    {
      "type": "Feature",
      "properties": {
        "norad_id": 31531,
        "name": "FENGYUN 1C DEB",
        "group": "fengyun-1c-debris",
        "lat": -71.19621504648495,
        "lon": -168.15667531938814,
        "alt_km": 605.8162743366602,
        "timestamp": "2025-12-18T21:31:51.284665+00:00",
        "meta_object_name": "FENGYUN 1C DEB",
        "meta_object_id": "1999-025BXW",
        "meta_epoch": "2025-12-15T20:25:10.111008",
        "meta_mean_motion": 14.35669626,
        "meta_eccentricity": 0.02439564,
        "meta_inclination": 98.3829,
        "meta_ra_of_asc_node": 34.5409,
        "meta_arg_of_pericenter": 259.2903,
        "meta_mean_anomaly": 98.0732,
        "meta_ephemeris_type": 0,
        "meta_classification_type": "U",
        "meta_norad_cat_id": 31531,
        "meta_element_set_no": 999,
        "meta_rev_at_epoch": 63979,
        "meta_bstar": 0.00065093757,
        "meta_mean_motion_dot": 2.583e-05,
        "meta_mean_motion_ddot": 0,
        "tle_line1": "1 31531U 99025BXW 25349.85081147  .00002583  00000+0  65094-3 0  9999",
        "tle_line2": "2 31531  98.3829  34.5409 0243956 259.2903  98.0732 14.35669626639799"
      },
      "geometry": {
        "type": "Point",
        "coordinates": [
          -168.15667531938814,
          -71.19621504648495
        ]
      }
    },
    {
      "type": "Feature",
      "properties": {
        "norad_id": 31533,
        "name": "FENGYUN 1C DEB",
        "group": "fengyun-1c-debris",
        "lat": -59.164082520628476,
        "lon": 49.876931460256515,
        "alt_km": 807.6073749231673,
        "timestamp": "2025-12-18T21:31:51.284675+00:00",
        "meta_object_name": "FENGYUN 1C DEB",
        "meta_object_id": "1999-025BXY",
        "meta_epoch": "2025-12-17T10:45:46.183680",
        "meta_mean_motion": 14.27637495,
        "meta_eccentricity": 0.00653889,
        "meta_inclination": 98.9606,
        "meta_ra_of_asc_node": 243.7176,
        "meta_arg_of_pericenter": 335.9648,
        "meta_mean_anomaly": 23.8484,
        "meta_ephemeris_type": 0,
        "meta_classification_type": "U",
        "meta_norad_cat_id": 31533,
        "meta_element_set_no": 999,
        "meta_rev_at_epoch": 66190,
        "meta_bstar": 0.00033965008,
        "meta_mean_motion_dot": 8.09e-06,
        "meta_mean_motion_ddot": 0,
        "tle_line1": "1 31533U 99025BXY 25351.44845120  .00000809  00000+0  33965-3 0  9999",
        "tle_line2": "2 31533  98.9606 243.7176 0065388 335.9648  23.8484 14.27637495661902"
      },
      "geometry": {
        "type": "Point",
        "coordinates": [
          49.876931460256515,
          -59.164082520628476
        ]
      }
    },
    {
      "type": "Feature",
      "properties": {
        "norad_id": 31535,
        "name": "FENGYUN 1C DEB",
        "group": "fengyun-1c-debris",
        "lat": -53.47571976882475,
        "lon": 11.34142357749716,
        "alt_km": 803.0835404692962,
        "timestamp": "2025-12-18T21:31:51.284686+00:00",
        "meta_object_name": "FENGYUN 1C DEB",
        "meta_object_id": "1999-025BYA",
        "meta_epoch": "2025-12-08T20:01:31.264032",
        "meta_mean_motion": 14.28309987,
        "meta_eccentricity": 0.00876599,
        "meta_inclination": 98.0348,
        "meta_ra_of_asc_node": 193.0693,
        "meta_arg_of_pericenter": 174.5726,
        "meta_mean_anomaly": 185.6428,
        "meta_ephemeris_type": 0,
        "meta_classification_type": "U",
        "meta_norad_cat_id": 31535,
        "meta_element_set_no": 999,
        "meta_rev_at_epoch": 71875,
        "meta_bstar": 0.0012494375,
        "meta_mean_motion_dot": 3.212e-05,
        "meta_mean_motion_ddot": 0,
        "tle_line1": "1 31535U 99025BYA 25342.83438963  .00003212  00000+0  12494-2 0  9991",
        "tle_line2": "2 31535  98.0348 193.0693 0087659 174.5726 185.6428 14.28309987718752"
      },
      "geometry": {
        "type": "Point",
        "coordinates": [
          11.34142357749716,
          -53.47571976882475
        ]
      }
    },
    {
      "type": "Feature",
      "properties": {
        "norad_id": 31536,
        "name": "FENGYUN 1C DEB",
        "group": "fengyun-1c-debris",
        "lat": -62.04657639504832,
        "lon": -83.97154027202659,
        "alt_km": 924.6950385110276,
        "timestamp": "2025-12-18T21:31:51.284696+00:00",
        "meta_object_name": "FENGYUN 1C DEB",
        "meta_object_id": "1999-025BYB",
        "meta_epoch": "2025-12-18T05:19:27.902208",
        "meta_mean_motion": 14.54390079,
        "meta_eccentricity": 0.02945362,
        "meta_inclination": 98.2372,
        "meta_ra_of_asc_node": 259.521,
        "meta_arg_of_pericenter": 127.8062,
        "meta_mean_anomaly": 235.0196,
        "meta_ephemeris_type": 0,
        "meta_classification_type": "U",
        "meta_norad_cat_id": 31536,
        "meta_element_set_no": 999,
        "meta_rev_at_epoch": 96337,
        "meta_bstar": 0.00072957343,
        "meta_mean_motion_dot": 5.508e-05,
        "meta_mean_motion_ddot": 0,
        "tle_line1": "1 31536U 99025BYB 25352.22185072  .00005508  00000+0  72957-3 0  9997",
        "tle_line2": "2 31536  98.2372 259.5210 0294536 127.8062 235.0196 14.54390079963376"
      },
      "geometry": {
        "type": "Point",
        "coordinates": [
          -83.97154027202659,
          -62.04657639504832
        ]
      }
    },
    {
      "type": "Feature",
      "properties": {
        "norad_id": 31537,
        "name": "FENGYUN 1C DEB",
        "group": "fengyun-1c-debris",
        "lat": -80.31702256586186,
        "lon": -139.97973861462302,
        "alt_km": 620.9264748664882,
        "timestamp": "2025-12-18T21:31:51.284706+00:00",
        "meta_object_name": "FENGYUN 1C DEB",
        "meta_object_id": "1999-025BYC",
        "meta_epoch": "2025-12-17T05:20:33.052992",
        "meta_mean_motion": 14.20381153,
        "meta_eccentricity": 0.03486583,
        "meta_inclination": 99.2923,
        "meta_ra_of_asc_node": 144.613,
        "meta_arg_of_pericenter": 311.6715,
        "meta_mean_anomaly": 45.5094,
        "meta_ephemeris_type": 0,
        "meta_classification_type": "U",
        "meta_norad_cat_id": 31537,
        "meta_element_set_no": 999,
        "meta_rev_at_epoch": 93345,
        "meta_bstar": 0.0015959458,
        "meta_mean_motion_dot": 6.271e-05,
        "meta_mean_motion_ddot": 0,
        "tle_line1": "1 31537U 99025BYC 25351.22260478  .00006271  00000+0  15959-2 0  9997",
        "tle_line2": "2 31537  99.2923 144.6130 0348658 311.6715  45.5094 14.20381153933451"
      },
      "geometry": {
        "type": "Point",
        "coordinates": [
          -139.97973861462302,
          -80.31702256586186
        ]
      }
    },
    {
      "type": "Feature",
      "properties": {
        "norad_id": 31538,
        "name": "FENGYUN 1C DEB",
        "group": "fengyun-1c-debris",
        "lat": 80.17854554443977,
        "lon": 165.0333684746801,
        "alt_km": 574.4477270689085,
        "timestamp": "2025-12-18T21:31:51.284717+00:00",
        "meta_object_name": "FENGYUN 1C DEB",
        "meta_object_id": "1999-025BYD",
        "meta_epoch": "2025-11-18T21:37:36.814656",
        "meta_mean_motion": 14.96885168,
        "meta_eccentricity": 0.00235351,
        "meta_inclination": 98.2479,
        "meta_ra_of_asc_node": 190.2519,
        "meta_arg_of_pericenter": 356.6213,
        "meta_mean_anomaly": 3.4844,
        "meta_ephemeris_type": 0,
        "meta_classification_type": "U",
        "meta_norad_cat_id": 31538,
        "meta_element_set_no": 999,
        "meta_rev_at_epoch": 66646,
        "meta_bstar": 0.0047226763,
        "meta_mean_motion_dot": 0.00054817,
        "meta_mean_motion_ddot": 0,
        "tle_line1": "1 31538U 99025BYD 25322.90112054  .00054817  00000+0  47227-2 0  9999",
        "tle_line2": "2 31538  98.2479 190.2519 0023535 356.6213   3.4844 14.96885168666469"
      },
      "geometry": {
        "type": "Point",
        "coordinates": [
          165.0333684746801,
          80.17854554443977
        ]
      }
    },
    {
      "type": "Feature",
      "properties": {
        "norad_id": 31540,
        "name": "FENGYUN 1C DEB",
        "group": "fengyun-1c-debris",
        "lat": 1.7181216259241787,
        "lon": -26.772006731806343,
        "alt_km": 706.4640700770879,
        "timestamp": "2025-12-18T21:31:51.284727+00:00",
        "meta_object_name": "FENGYUN 1C DEB",
        "meta_object_id": "1999-025BYF",
        "meta_epoch": "2025-12-17T16:50:42.753408",
        "meta_mean_motion": 14.65440334,
        "meta_eccentricity": 0.0176642,
        "meta_inclination": 99.0563,
        "meta_ra_of_asc_node": 151.6373,
        "meta_arg_of_pericenter": 285.8233,
        "meta_mean_anomaly": 72.3556,
        "meta_ephemeris_type": 0,
        "meta_classification_type": "U",
        "meta_norad_cat_id": 31540,
        "meta_element_set_no": 999,
        "meta_rev_at_epoch": 98374,
        "meta_bstar": 0.00065590191,
        "meta_mean_motion_dot": 4.401e-05,
        "meta_mean_motion_ddot": 0,
        "tle_line1": "1 31540U 99025BYF 25351.70188372  .00004401  00000+0  65590-3 0  9996",
        "tle_line2": "2 31540  99.0563 151.6373 0176642 285.8233  72.3556 14.65440334983743"
      },
      "geometry": {
        "type": "Point",
        "coordinates": [
          -26.772006731806343,
          1.7181216259241787
        ]
      }
    }
  ]
}